CBERS 4                 
1 40336U 14079A   20127.49468194 -.00000018  00000-0  90346-5 0  9991
2 40336  98.5629 199.4652 0000854 117.7670 242.3604 14.35411339283669
CZ-4B R/B               
1 40337U 14079B   20127.23344366  .00000247  00000-0  25598-4 0  9997
2 40337  98.4646  10.0124 0178011  85.8316 276.3221 14.89357469294096
